STARLINK-32334          
1 62023U 24213R   26068.52454244  .00026147  00000+0  89148-3 0  9999
2 62023  53.1610 168.6006 0001561 157.5927 202.5143 15.30212185 73136
TANSTAAFL-2             
1 62378U 24247B   26067.20753490  .00013897  00000+0  50872-3 0  9998
2 62378  44.9880 125.0934 0003072 298.8909  61.1666 15.28016845 67506
